NORAD_CAT_ID,OBJECT_NAME,OBJECT_TYPE,EPOCH,MEAN_MOTION,ECCENTRICITY,INCLINATION,RA_OF_ASC_NODE,ARG_OF_PERICENTER,MEAN_ANOMALY,BSTAR,MEAN_MOTION_DOT,MEAN_MOTION_DDOT,TLE_LINE0,TLE_LINE1,TLE_LINE2,SEMIMAJOR_AXIS,PERIOD,APOGEE,PERIGEE,DECAYED
53431.0,STARLINK-4548,PAYLOAD,2023-09-12 07:23:23,15.08849795,0.0001348,53.2164,226.1055,98.3378,261.7767,0.00010244,1.343e-05,0.0,0 STARLINK-4548,1 53431U 22097AV  23255.30791019  .00001343  00000-0  10244-3 0  9998,2 53431  53.2164 226.1055 0001348  98.3378 261.7767 15.08849795 61025,6917.85,95.437,540.648,538.783,0.0
53431.0,STARLINK-4548,PAYLOAD,2023-09-12 10:34:09,15.08851022,0.000138,53.2165,225.51,98.6688,261.446,0.00013143,1.805e-05,0.0,0 STARLINK-4548,1 53431U 22097AV  23255.44038846  .00001805  00000-0  13143-3 0  9999,2 53431  53.2165 225.5100 0001380  98.6688 261.4460 15.08851022 61521,6917.847,95.437,540.666,538.757,0.0
53431.0,STARLINK-4548,PAYLOAD,2023-09-13 02:28:01,15.0883839,9.78e-05,53.2166,222.5374,94.1537,265.9567,9.4432e-05,1.215e-05,0.0,0 STARLINK-4548,1 53431U 22097AV  23256.10279934  .00001215  00000-0  94432-4 0  9994,2 53431  53.2166 222.5374 0000978  94.1537 265.9567 15.08838390 61146,6917.885,95.438,540.427,539.074,0.0
53431.0,STARLINK-4548,PAYLOAD,2023-09-13 07:14:10,15.08854464,0.0001383,53.2154,221.6442,91.934,268.1811,0.0003507,5.3e-05,0.0,0 STARLINK-4548,1 53431U 22097AV  23256.30151214  .00005300  00000-0  35070-3 0  9997,2 53431  53.2154 221.6442 0001383  91.9340 268.1811 15.08854464 61177,6917.836,95.437,540.658,538.744,0.0
53431.0,STARLINK-4548,PAYLOAD,2023-09-13 15:11:06,15.08844212,0.000136,53.2156,220.1579,96.0808,264.0339,0.00017347,2.474e-05,0.0,0 STARLINK-4548,1 53431U 22097AV  23256.63271647  .00002474  00000-0  17347-3 0  9992,2 53431  53.2156 220.1579 0001360  96.0808 264.0339 15.08844212 61220,6917.868,95.437,540.673,538.792,0.0
53431.0,STARLINK-4548,PAYLOAD,2023-09-14 07:04:58,15.08839509,0.0001591,53.2163,217.1832,101.1068,259.0103,6.5811e-05,7.6e-06,0.0,0 STARLINK-4548,1 53431U 22097AV  23257.29511972  .00000760  00000-0  65811-4 0  9999,2 53431  53.2163 217.1832 0001591 101.1068 259.0103 15.08839509 61325,6917.882,95.438,540.848,538.646,0.0
53431.0,STARLINK-4548,PAYLOAD,2023-09-15 06:55:45,15.08846296,0.0001522,53.2166,212.7224,104.0564,256.0597,0.00014775,2.065e-05,0.0,0 STARLINK-4548,1 53431U 22097AV  23258.28871871  .00002065  00000-0  14775-3 0  9998,2 53431  53.2166 212.7224 0001522 104.0564 256.0597 15.08846296 61955,6917.861,95.437,540.779,538.673,0.0
53431.0,STARLINK-4548,PAYLOAD,2023-09-16 02:00:23,15.08844336,0.0001442,53.2159,209.1534,107.5778,252.5372,0.00022352,3.272e-05,0.0,0 STARLINK-4548,1 53431U 22097AV  23259.08359990  .00003272  00000-0  22352-3 0  9991,2 53431  53.2159 209.1534 0001442 107.5778 252.5372 15.08844336 61592,6917.867,95.437,540.73,538.735,0.0
53431.0,STARLINK-4548,PAYLOAD,2023-09-16 06:46:32,15.08850331,0.0001287,53.2161,208.2651,97.9817,262.1321,0.00023269,3.418e-05,0.0,0 STARLINK-4548,1 53431U 22097AV  23259.28231716  .00003418  00000-0  23269-3 0  9998,2 53431  53.2161 208.2651 0001287  97.9817 262.1321 15.08850331 62109,6917.849,95.437,540.604,538.823,0.0
53431.0,STARLINK-4548,PAYLOAD,2023-09-17 01:51:10,15.08846308,0.0001327,53.2164,204.6959,104.1075,256.0065,0.00013139,1.804e-05,0.0,0 STARLINK-4548,1 53431U 22097AV  23260.07719946  .00001804  00000-0  13139-3 0  9995,2 53431  53.2164 204.6959 0001327 104.1075 256.0065 15.08846308 61740,6917.861,95.437,540.644,538.808,0.0
53431.0,STARLINK-4548,PAYLOAD,2023-09-17 03:26:33,15.08849449,0.0001263,53.2172,204.4016,95.2353,264.8783,0.00016264,2.302e-05,0.0,0 STARLINK-4548,1 53431U 22097AV  23260.14343840  .00002302  00000-0  16264-3 0  9995,2 53431  53.2172 204.4016 0001263  95.2353 264.8783 15.08849449 62237,6917.852,95.437,540.59,538.843,0.0
53431.0,STARLINK-4548,PAYLOAD,2023-09-18 01:41:57,15.08845397,0.0001438,53.2172,200.2381,105.7852,254.3299,8.4049e-05,1.05e-05,0.0,0 STARLINK-4548,1 53431U 22097AV  23261.07079907  .00001050  00000-0  84049-4 0  9994,2 53431  53.2172 200.2381 0001438 105.7852 254.3299 15.08845397 61896,6917.864,95.437,540.724,538.734,0.0
53431.0,STARLINK-4548,PAYLOAD,2023-09-18 06:28:06,15.0885125,0.0001417,53.2167,199.3437,98.6401,261.4751,0.00015803,2.229e-05,0.0,0 STARLINK-4548,1 53431U 22097AV  23261.26951595  .00002229  00000-0  15803-3 0  9997,2 53431  53.2167 199.3437 0001417  98.6401 261.4751 15.08851250 62402,6917.846,95.437,540.691,538.731,0.0
53431.0,STARLINK-4548,PAYLOAD,2023-09-18 19:11:11,15.08837462,0.0001303,53.2167,196.9619,100.5823,259.5316,0.00010936,1.453e-05,0.0,0 STARLINK-4548,1 53431U 22097AV  23261.79944237  .00001453  00000-0  10936-3 0  9990,2 53431  53.2167 196.9619 0001303 100.5823 259.5316 15.08837462 62484,6917.888,95.438,540.655,538.852,0.0
53431.0,STARLINK-4548,PAYLOAD,2023-09-19 01:32:44,15.08843669,0.0001665,53.2178,195.7776,91.3377,268.7806,7.4905e-05,9.04e-06,0.0,0 STARLINK-4548,1 53431U 22097AV  23262.06439981  .00000904  00000-0  74905-4 0  9993,2 53431  53.2178 195.7776 0001665  91.3377 268.7806 15.08843669 62043,6917.869,95.437,540.886,538.582,0.0
53431.0,STARLINK-4548,PAYLOAD,2023-09-20 02:58:53,15.08850993,0.0001426,53.2168,191.0184,97.3397,262.7757,0.00016349,2.316e-05,0.0,0 STARLINK-4548,1 53431U 22097AV  23263.12423313  .00002316  00000-0  16349-3 0  9999,2 53431  53.2168 191.0184 0001426  97.3397 262.7757 15.08850993 62202,6917.847,95.437,540.698,538.725,0.0
53431.0,STARLINK-4548,PAYLOAD,2023-09-20 18:52:46,15.08828391,0.0001707,53.217,188.0457,92.9773,267.1414,-0.00011309,-2.087e-05,0.0,0 STARLINK-4548,1 53431U 22097AV  23263.78664980 -.00002087  00000-0 -11309-3 0  9996,2 53431  53.2170 188.0457 0001707  92.9773 267.1414 15.08828391 62302,6917.916,95.438,540.962,538.6,0.0
53431.0,STARLINK-4548,PAYLOAD,2023-09-21 01:14:19,15.08825039,0.000152,53.2166,186.8538,89.9006,270.216,-0.00018922,-3.297e-05,0.0,0 STARLINK-4548,1 53431U 22097AV  23264.05161044 -.00003297  00000-0 -18922-3 0  9992,2 53431  53.2166 186.8538 0001520  89.9006 270.2160 15.08825039 62827,6917.926,95.439,540.843,538.74,0.0
53431.0,STARLINK-4548,PAYLOAD,2023-09-21 21:54:20,15.08840774,0.0001313,53.2161,182.9888,90.5646,269.5497,0.00028027,4.175e-05,0.0,0 STARLINK-4548,1 53431U 22097AV  23264.91273182  .00004175  00000-0  28027-3 0  9995,2 53431  53.2161 182.9888 0001313  90.5646 269.5497 15.08840774 62956,6917.878,95.438,540.651,538.835,0.0
53431.0,STARLINK-4548,PAYLOAD,2023-09-22 04:15:52,15.08855584,0.0001556,53.2164,181.7978,106.5291,253.5872,0.00062575,9.689e-05,0.0,0 STARLINK-4548,1 53431U 22097AV  23265.17768746  .00009689  00000-0  62575-3 0  9990,2 53431  53.2164 181.7978 0001556 106.5291 253.5872 15.08855584 62516,6917.833,95.437,540.774,538.621,0.0
53431.0,STARLINK-4548,PAYLOAD,2023-09-22 21:45:06,15.08854808,0.0001416,53.2161,178.5279,95.263,264.8524,0.00049088,7.536e-05,0.0,0 STARLINK-4548,1 53431U 22097AV  23265.90632921  .00007536  00000-0  49088-3 0  9999,2 53431  53.2161 178.5279 0001416  95.2630 264.8524 15.08854808 63100,6917.835,95.437,540.68,538.721,0.0
53431.0,STARLINK-4548,PAYLOAD,2023-09-23 00:55:52,15.08861826,0.0001337,53.2158,177.9337,82.1455,277.9689,0.00083425,0.00013022,0.0,0 STARLINK-4548,1 53431U 22097AV  23266.03880766  .00013022  00000-0  83425-3 0  9996,2 53431  53.2158 177.9337 0001337  82.1455 277.9689 15.08861826 62649,6917.814,95.436,540.604,538.754,0.0
53431.0,STARLINK-4548,PAYLOAD,2023-09-23 04:06:39,15.08867233,0.0001324,53.2158,177.3388,81.1802,278.934,0.0010399,0.00016313,0.0,0 STARLINK-4548,1 53431U 22097AV  23266.17128565  .00016313  00000-0  10399-2 0  9998,2 53431  53.2158 177.3388 0001324  81.1802 278.9340 15.08867233 63149,6917.797,95.436,540.578,538.746,0.0
53431.0,STARLINK-4548,PAYLOAD,2023-09-24 03:57:26,15.08855793,0.0001326,53.2163,172.8768,97.5993,262.515,0.0011973,0.00018827,0.0,0 STARLINK-4548,1 53431U 22097AV  23267.16488681  .00018827  00000-0  11973-2 0  9997,2 53431  53.2163 172.8768 0001326  97.5993 262.5150 15.08855793 62810,6917.832,95.437,540.614,538.78,0.0
53431.0,STARLINK-4548,PAYLOAD,2023-09-24 18:15:54,15.08838928,0.0001514,53.2161,170.2014,87.1957,272.9209,0.00065927,0.0001022,0.0,0 STARLINK-4548,1 53431U 22097AV  23267.76105094  .00010220  00000-0  65927-3 0  9995,2 53431  53.2161 170.2014 0001514  87.1957 272.9209 15.08838928 62909,6917.884,95.438,540.796,538.701,0.0
53431.0,STARLINK-4548,PAYLOAD,2023-09-24 21:26:41,15.08838557,0.0001372,53.2162,169.6061,100.9104,259.2042,0.00064535,9.997e-05,0.0,0 STARLINK-4548,1 53431U 22097AV  23267.89353152  .00009997  00000-0  64535-3 0  9992,2 53431  53.2162 169.6061 0001372 100.9104 259.2042 15.08838557 63401,6917.885,95.438,540.699,538.801,0.0
53431.0,STARLINK-4548,PAYLOAD,2023-09-25 10:09:46,15.0884812,0.0001301,53.2165,167.2281,97.789,262.325,0.0004691,7.187e-05,0.0,0 STARLINK-4548,1 53431U 22097AV  23268.42345018  .00007187  00000-0  46910-3 0  9990,2 53431  53.2165 167.2281 0001301  97.7890 262.3250 15.08848120 63480,6917.856,95.437,540.621,538.821,0.0
53431.0,STARLINK-4548,PAYLOAD,2023-09-25 21:17:27,15.08856106,0.0001263,53.2162,165.1463,100.1966,259.9168,0.00053356,8.218e-05,0.0,0 STARLINK-4548,1 53431U 22097AV  23268.88712575  .00008218  00000-0  53356-3 0  9994,2 53431  53.2162 165.1463 0001263 100.1966 259.9168 15.08856106 63557,6917.831,95.437,540.57,538.822,0.0
53431.0,STARLINK-4548,PAYLOAD,2023-09-25 22:52:50,15.08859423,0.0001284,53.2161,164.849,94.2304,265.8834,0.00064969,0.00010072,0.0,0 STARLINK-4548,1 53431U 22097AV  23268.95336492  .00010072  00000-0  64969-3 0  9995,2 53431  53.2161 164.8490 0001284  94.2304 265.8834 15.08859423 63083,6917.821,95.436,540.574,538.798,0.0
53431.0,STARLINK-4548,PAYLOAD,2023-09-26 03:38:59,15.08869774,0.0001323,53.2165,163.9562,94.5463,265.568,0.00082392,0.0001286,0.0,0 STARLINK-4548,1 53431U 22097AV  23269.15208018  .00012860  00000-0  82392-3 0  9997,2 53431  53.2165 163.9562 0001323  94.5463 265.5680 15.08869774 63592,6917.789,95.436,540.57,538.739,0.0
